FTCN31 CWAO 250500
TAF CYVR 250538Z 2506/2612 VRB03KT P6SM SCT015 BKN030 OVC070 TEMPO
     2506/2512 4SM -DZ BR BKN008 BKN015 OVC030
    FM251200 08005KT P6SM SCT020 BKN040 TEMPO 2512/2518 BKN020
    FM251800 10008KT P6SM BKN040
    FM260000 VRB03KT P6SM SCT040
    RMK NXT FCST BY 250900Z=