SACN62 CYVR 250200 
METAR CYVR 250200Z 11006KT 15SM FEW005 FEW015 OVC029 03/02 A2981 RMK
 SF1ST1SC6 VIS N 10SM SLP095=
